NORAD_CAT_ID,OBJECT_NAME,OBJECT_TYPE,EPOCH,MEAN_MOTION,ECCENTRICITY,INCLINATION,RA_OF_ASC_NODE,ARG_OF_PERICENTER,MEAN_ANOMALY,BSTAR,MEAN_MOTION_DOT,MEAN_MOTION_DDOT,TLE_LINE0,TLE_LINE1,TLE_LINE2,SEMIMAJOR_AXIS,PERIOD,APOGEE,PERIGEE,DECAYED
49145.0,STARLINK-3119,PAYLOAD,2022-04-18 08:00:01,15.43228675,0.0003354,70.0001,240.2119,273.4149,205.3697,-0.017477,-0.0072035,0.0,0 STARLINK-3119,1 49145U 21082R   22108.33334491 -.00720350  00000-0 -17477-1 0  9995,2 49145  70.0001 240.2119 0003354 273.4149 205.3697 15.43228675 34009,6814.725,93.311,438.875,434.304,0.0
49145.0,STARLINK-3119,PAYLOAD,2022-04-18 14:00:01,15.42845807,0.0003569,70.0002,239.5358,282.3562,144.7475,-0.0177419999999999,-0.00721813,0.0,0 STARLINK-3119,1 49145U 21082R   22108.58334491 -.00721813  00000-0 -17742-1 0  9992,2 49145  70.0002 239.5358 0003569 282.3562 144.7475 15.42845807  3683,6815.852,93.334,440.15,435.285,0.0
49145.0,STARLINK-3119,PAYLOAD,2022-04-18 22:00:00,15.42297158,0.0003332,69.9995,238.6358,276.42400000000004,201.2531,-0.016631,-0.0066811,0.0,0 STARLINK-3119,1 49145U 21082R   22108.91667824 -.00668110  00000-0 -16631-1 0  9994,2 49145  69.9995 238.6358 0003332 276.4240 201.2531 15.42297158  3655,6817.468000000003,93.367,441.605,437.062,0.0
49145.0,STARLINK-3119,PAYLOAD,2022-04-19 14:00:01,15.4131031,0.0003373,70.0001,236.8347,283.6865,293.2466,-0.01855,-0.00717136,0.0,0 STARLINK-3119,1 49145U 21082R   22109.58334491 -.00717136  00000-0 -18550-1 0  9994,2 49145  70.0001 236.8347 0003373 283.6865 293.2466 15.41310310 34198,6820.378000000002,93.427,444.544,439.943,0.0
49145.0,STARLINK-3119,PAYLOAD,2022-04-20 14:00:01,15.39779403,0.0003525,70.0,234.14,280.4175,80.8282,-0.019604,-0.00720133,0.0,0 STARLINK-3119,1 49145U 21082R   22110.58334491 -.00720133  00000-0 -19604-1 0  9998,2 49145  70.0000 234.1400 0003525 280.4175  80.8282 15.39779403 34359,6824.898,93.52,449.169,444.357,0.0
49145.0,STARLINK-3119,PAYLOAD,2022-04-20 22:00:00,15.39268818,0.0003438,69.9997,233.2432,269.2082,138.9162,-0.019938,-0.0072016,0.0,0 STARLINK-3119,1 49145U 21082R   22110.91667824 -.00720160  00000-0 -19938-1 0  9994,2 49145  69.9997 233.2432 0003438 269.2082 138.9162 15.39268818  3666,6826.406999999997,93.551,450.619,445.925,0.0
49145.0,STARLINK-3119,PAYLOAD,2022-04-21 14:00:01,15.38245465,0.0003405,69.9999,231.4518,282.7897,217.2548,-0.020585,-0.00719072,0.0,0 STARLINK-3119,1 49145U 21082R   22111.58334491 -.00719072  00000-0 -20585-1 0  9999,2 49145  69.9999 231.4518 0003405 282.7897 217.2548 15.38245465  3684,6829.435,93.613,453.625,448.974,0.0
49145.0,STARLINK-3119,PAYLOAD,2022-04-21 22:00:00,15.37736236,0.0003228,69.9996,230.5568,272.3995,272.6848,-0.020995,-0.00721111,0.0,0 STARLINK-3119,1 49145U 21082R   22111.91667824 -.00721111  00000-0 -20995-1 0  9997,2 49145  69.9996 230.5568 0003228 272.3995 272.6848 15.37736236  3669,6830.941999999999,93.644,455.012,450.602,0.0
49145.0,STARLINK-3119,PAYLOAD,2022-04-22 14:00:01,15.36711242,0.000333,70.0001,228.7696,280.4827,352.8454,-0.021544,-0.00716165,0.0,0 STARLINK-3119,1 49145U 21082R   22112.58334491 -.00716165  00000-0 -21544-1 0  9996,2 49145  70.0001 228.7696 0003330 280.4827 352.8454 15.36711242  3683,6833.979,93.707,458.12,453.569,0.0
49145.0,STARLINK-3119,PAYLOAD,2022-04-22 22:00:00,15.36204042,0.0003364,69.9997,227.8767,273.7678,42.7611,-0.022107,-0.0072244,0.0,0 STARLINK-3119,1 49145U 21082R   22112.91667824 -.00722440  00000-0 -22107-1 0  9991,2 49145  69.9997 227.8767 0003364 273.7678  42.7611 15.36204042 34701,6835.483,93.738,459.648,455.049,0.0
49145.0,STARLINK-3119,PAYLOAD,2022-04-23 14:00:01,15.35181005,0.0003567,70.0001,226.0936,284.6107,116.4845,-0.022783,-0.00720633,0.0,0 STARLINK-3119,1 49145U 21082R   22113.58334491 -.00720633  00000-0 -22783-1 0  9998,2 49145  70.0001 226.0936 0003567 284.6107 116.4845 15.35181005  3685,6838.52,93.8,462.824,457.946,0.0
49145.0,STARLINK-3119,PAYLOAD,2022-04-24 06:00:00,15.34158316,0.0003393,69.9999,224.3132,280.0019,203.2082,-0.02349,-0.00719207,0.0,0 STARLINK-3119,1 49145U 21082R   22114.25001157 -.00719207  00000-0 -23490-1 0  9994,2 49145  69.9999 224.3132 0003393 280.0019 203.2082 15.34158316 34912,6841.559,93.863,465.745,461.102,0.0
49145.0,STARLINK-3119,PAYLOAD,2022-04-24 14:00:01,15.33645679,0.0003289,69.9999,223.4239,280.3909,242.9583,-0.023795,-0.00716937,0.0,0 STARLINK-3119,1 49145U 21082R   22114.58334491 -.00716937  00000-0 -23795-1 0  9995,2 49145  69.9999 223.4239 0003289 280.3909 242.9583 15.33645679  3661,6843.083000000001,93.894,467.199,462.697,0.0
49145.0,STARLINK-3119,PAYLOAD,2022-04-25 14:00:01,15.32112408,0.0003322,70.0,220.7604,280.5291,359.55800000000005,-0.024934,-0.00715853,0.0,0 STARLINK-3119,1 49145U 21082R   22115.58334491 -.00715853  00000-0 -24934-1 0  9998,2 49145  70.0000 220.7604 0003322 280.5291 359.5580 15.32112408 35112,6847.648,93.988,471.788,467.23800000000006,0.0
49145.0,STARLINK-3119,PAYLOAD,2022-04-25 22:00:00,15.31604204,0.0003295,69.9997,219.8738,268.6366,49.1368,-0.025517,-0.00720615,0.0,0 STARLINK-3119,1 49145U 21082R   22115.91667824 -.00720615  00000-0 -25517-1 0  9994,2 49145  69.9997 219.8738 0003295 268.6366  49.1368 15.31604204  3682,6849.163000000001,94.019,473.284,468.771,0.0
49145.0,STARLINK-3119,PAYLOAD,2022-04-26 14:00:01,15.30582263,0.0003489,69.9999,218.103,282.2336,109.1389,-0.026325,-0.00720165,0.0,0 STARLINK-3119,1 49145U 21082R   22116.58335648 -.00720165  00000-0 -26325-1 0  9992,2 49145  69.9999 218.1030 0003489 282.2336 109.1389 15.30582263 35274,6852.2109999999975,94.082,476.467,471.685,0.0
49145.0,STARLINK-3119,PAYLOAD,2022-04-26 22:00:00,15.30070531,0.0003369,69.9998,217.2187,272.0116,155.1463,-0.026697,-0.00718902,0.0,0 STARLINK-3119,1 49145U 21082R   22116.91667824 -.00718902  00000-0 -26697-1 0  9991,2 49145  69.9998 217.2187 0003369 272.0116 155.1463 15.30070531  3679,6853.739000000001,94.113,477.913,473.295,0.0
49145.0,STARLINK-3119,PAYLOAD,2022-04-27 14:00:01,15.29047813,0.0003412,69.9998,215.4521,285.8126,211.2683,-0.027511,-0.00717855,0.0,0 STARLINK-3119,1 49145U 21082R   22117.58335648 -.00717855  00000-0 -27511-1 0  9993,2 49145  69.9998 215.4521 0003412 285.8126 211.2683 15.29047813  3665,6856.794,94.176,480.999,476.32,0.0
49145.0,STARLINK-3119,PAYLOAD,2022-04-27 22:00:00,15.28537349,0.0003211,69.9997,214.5695,276.8255,254.2019,-0.027962,-0.00718187,0.0,0 STARLINK-3119,1 49145U 21082R   22117.91667824 -.00718187  00000-0 -27962-1 0  9993,2 49145  69.9997 214.5695 0003211 276.8255 254.2019 15.28537349 35477,6858.321,94.208,482.388,477.984,0.0
49145.0,STARLINK-3119,PAYLOAD,2022-04-28 14:00:01,15.27513041,0.0003284,70.0,212.807,283.8708,313.3397,-0.028698,-0.00714627,0.0,0 STARLINK-3119,1 49145U 21082R   22118.58334491 -.00714627  00000-0 -28698-1 0  9990,2 49145  70.0000 212.8070 0003284 283.8708 313.3397 15.27513041  3668,6861.387,94.271,485.505,480.99800000000016,0.0
49145.0,STARLINK-3119,PAYLOAD,2022-04-28 22:00:01,15.27004989,0.0003201,69.9997,211.9267,271.7639,357.6812,-0.029366,-0.00727904,0.0,0 STARLINK-3119,1 49145U 21082R   22118.91668981 -.00727904  00000-0 -29366-1 0  9996,2 49145  69.9997 211.9267 0003201 271.7639 357.6812 15.27004989 35626,6862.908,94.302,486.97,482.577,0.0
49145.0,STARLINK-3119,PAYLOAD,2022-04-29 14:00:01,15.25982312,0.0003388,70.0001,210.1684,281.2448,50.6422,-0.030212,-0.00726161,0.0,0 STARLINK-3119,1 49145U 21082R   22119.58334491 -.00726161  00000-0 -30212-1 0  9992,2 49145  70.0001 210.1684 0003388 281.2448  50.6422 15.25982312  3668,6865.974,94.365,490.166,485.513,0.0
49145.0,STARLINK-3119,PAYLOAD,2022-04-29 22:00:00,15.25471892,0.0003385,69.9998,209.29,275.8608,86.3601,-0.030754,-0.00727774,0.0,0 STARLINK-3119,1 49145U 21082R   22119.91667824 -.00727774  00000-0 -30754-1 0  9990,2 49145  69.9998 209.2900 0003385 275.8608  86.3601 15.25471892  3654,6867.505999999999,94.397,491.695,487.046,0.0
49145.0,STARLINK-3119,PAYLOAD,2022-04-30 06:00:00,15.24959263,0.0003417,70.0001,208.4126,278.6813,113.2605,-0.031053,-0.0072388,0.0,0 STARLINK-3119,1 49145U 21082R   22120.25001157 -.00723880  00000-0 -31053-1 0  9997,2 49145  70.0001 208.4126 0003417 278.6813 113.2605 15.24959263 35839,6869.045,94.429,493.257,488.56300000000016,0.0
49145.0,STARLINK-3119,PAYLOAD,2022-04-30 14:00:01,15.24450569,0.0003507,70.0001,207.5357,285.468,135.5811,-0.031726,-0.00728086,0.0,0 STARLINK-3119,1 49145U 21082R   22120.58334491 -.00728086  00000-0 -31726-1 0  9993,2 49145  70.0001 207.5357 0003507 285.4680 135.5811 15.24450569  3648,6870.573,94.46,494.847,490.028,0.0
49145.0,STARLINK-3119,PAYLOAD,2022-04-30 22:00:00,15.23878988,0.0003405,69.9998,206.6608,284.6562,164.9174,-0.028244,-0.00635937,0.0,0 STARLINK-3119,1 49145U 21082R   22120.91667824 -.00635937  00000-0 -28244-1 0  9992,2 49145  69.9998 206.6608 0003405 284.6562 164.9174 15.23878988  3620,6872.291,94.496,496.496,491.816,0.0
49145.0,STARLINK-3119,PAYLOAD,2022-05-01 06:00:00,15.23426412,0.0003394,70.0002,205.7841,283.2473,194.1802,-0.032511,-0.00723903,0.0,0 STARLINK-3119,1 49145U 21082R   22121.25001157 -.00723903  00000-0 -32511-1 0  9994,2 49145  70.0002 205.7841 0003394 283.2473 194.1802 15.23426412 35989,6873.651999999999,94.524,497.85,493.184,0.0
49145.0,STARLINK-3119,PAYLOAD,2022-05-01 14:00:01,15.22915758,0.0003284,70.0001,204.9094,282.8442,221.8529,-0.033052,-0.00724782,0.0,0 STARLINK-3119,1 49145U 21082R   22121.58334491 -.00724782  00000-0 -33052-1 0  9997,2 49145  70.0001 204.9094 0003284 282.8442 221.8529 15.22915758  3645,6875.188,94.555,499.311,494.795,0.0
49145.0,STARLINK-3119,PAYLOAD,2022-05-01 22:00:01,15.22405539,0.000318,69.9998,204.0351,273.9561,257.4611,-0.033627,-0.00726207,0.0,0 STARLINK-3119,1 49145U 21082R   22121.91668981 -.00726207  00000-0 -33627-1 0  9990,2 49145  69.9998 204.0351 0003180 273.9561 257.4611 15.22405539  3662,6876.724,94.587,500.776,496.402,0.0
